NORAD_CAT_ID,OBJECT_NAME,OBJECT_TYPE,EPOCH,MEAN_MOTION,ECCENTRICITY,INCLINATION,RA_OF_ASC_NODE,ARG_OF_PERICENTER,MEAN_ANOMALY,BSTAR,MEAN_MOTION_DOT,MEAN_MOTION_DDOT,TLE_LINE0,TLE_LINE1,TLE_LINE2,SEMIMAJOR_AXIS,PERIOD,APOGEE,PERIGEE,DECAYED
51854.0,STARLINK-3541,PAYLOAD,2024-06-29 13:32:26,15.0881494,0.0001494,53.2162,273.9995,111.5593,248.5559,-0.00032962,-5.526e-05,0.0,0 STARLINK-3541,1 51854U 22022C   24181.56419045 -.00005526  00000-0 -32962-3 0  9996,2 51854  53.2162 273.9995 0001494 111.5593 248.5559 15.08814940129708,6917.957,95.439,540.856,538.788,0.0
51854.0,STARLINK-3541,PAYLOAD,2024-06-30 05:26:17,15.08831881,0.0001432,53.2168,271.0238,95.5669,264.5487,-1.2825e-05,-4.92e-06,0.0,0 STARLINK-3541,1 51854U 22022C   24182.22658653 -.00000492  00000-0 -12825-4 0  9994,2 51854  53.2168 271.0238 0001432  95.5669 264.5487 15.08831881129802,6917.905,95.438,540.761,538.78,0.0
51854.0,STARLINK-3541,PAYLOAD,2024-06-30 13:23:12,15.08842133,0.0001432,53.2159,269.5372,99.2364,260.879,0.00039292,5.971e-05,0.0,0 STARLINK-3541,1 51854U 22022C   24182.55778460  .00005971  00000-0  39292-3 0  9990,2 51854  53.2159 269.5372 0001432  99.2364 260.8790 15.08842133129859,6917.874,95.437,540.73,538.748,0.0
51854.0,STARLINK-3541,PAYLOAD,2024-07-01 05:17:04,15.08837513,0.0001401,53.2139,266.5608,113.4886,246.6253,4.7615e-05,4.7e-06,0.0,0 STARLINK-3541,1 51854U 22022C   24183.22018632  .00000470  00000-0  47615-4 0  9991,2 51854  53.2139 266.5608 0001401 113.4886 246.6253 15.08837513129953,6917.888,95.438,540.722,538.784,0.0
51854.0,STARLINK-3541,PAYLOAD,2024-07-01 13:13:59,15.08844557,0.00012,53.2152,265.0765,106.7992,253.3132,0.0014844,0.00023418,0.0,0 STARLINK-3541,1 51854U 22022C   24183.55138648  .00023418  00000-0  14844-2 0  9990,2 51854  53.2152 265.0765 0001200 106.7992 253.3132 15.08844557130001,6917.866,95.437,540.562,538.901,0.0
51854.0,STARLINK-3541,PAYLOAD,2024-07-02 05:07:51,15.08841954,0.0001376,53.2137,262.1022,93.087,267.0279,0.00026269,3.895e-05,0.0,0 STARLINK-3541,1 51854U 22022C   24184.21378520  .00003895  00000-0  26269-3 0  9991,2 51854  53.2137 262.1022 0001376  93.0870 267.0279 15.08841954130108,6917.874,95.437,540.691,538.788,0.0
51854.0,STARLINK-3541,PAYLOAD,2024-07-02 14:40:09,15.08839398,0.0001198,53.2145,260.3177,94.0066,266.1063,0.0010788,0.00016923,0.0,0 STARLINK-3541,1 51854U 22022C   24184.61122663  .00016923  00000-0  10788-2 0  9994,2 51854  53.2145 260.3177 0001198  94.0066 266.1063 15.08839398130164,6917.882,95.438,540.576,538.918,0.0
51854.0,STARLINK-3541,PAYLOAD,2024-07-03 04:58:38,15.08841727,0.0001366,53.2146,257.6379,106.591,253.5232,0.00046822,7.172e-05,0.0,0 STARLINK-3541,1 51854U 22022C   24185.20738778  .00007172  00000-0  46822-3 0  9995,2 51854  53.2146 257.6379 0001366 106.5910 253.5232 15.08841727130259,6917.875,95.437,540.685,538.795,0.0
51854.0,STARLINK-3541,PAYLOAD,2024-07-03 14:30:57,15.08842414,0.0001202,53.2148,255.8546,94.0239,266.0891,0.00020508,2.978e-05,0.0,0 STARLINK-3541,1 51854U 22022C   24185.60482796  .00002978  00000-0  20508-3 0  9997,2 51854  53.2148 255.8546 0001202  94.0239 266.0891 15.08842414130312,6917.873,95.437,540.57,538.906,0.0
51854.0,STARLINK-3541,PAYLOAD,2024-07-04 11:10:58,15.08841076,0.000131,53.215,251.9898,92.2508,267.8634,0.00016983,2.416e-05,0.0,0 STARLINK-3541,1 51854U 22022C   24186.46594950  .00002416  00000-0  16983-3 0  9997,2 51854  53.2150 251.9898 0001310  92.2508 267.8634 15.08841076130442,6917.877,95.437,540.648,538.836,0.0
51854.0,STARLINK-3541,PAYLOAD,2024-07-05 11:01:44,15.08845066,0.0001403,53.2163,247.5321,94.0217,266.0935,0.00016224,2.295e-05,0.0,0 STARLINK-3541,1 51854U 22022C   24187.45954604  .00002295  00000-0  16224-3 0  9996,2 51854  53.2163 247.5321 0001403  94.0217 266.0935 15.08845066130592,6917.865,95.437,540.7,538.759,0.0
51854.0,STARLINK-3541,PAYLOAD,2024-07-05 20:34:03,15.08852507,0.0001381,53.2163,245.748,90.104,270.011,0.00019523,2.822e-05,0.0,0 STARLINK-3541,1 51854U 22022C   24187.85698052  .00002822  00000-0  19523-3 0  9993,2 51854  53.2163 245.7480 0001381  90.1040 270.0110 15.08852507130659,6917.842,95.437,540.663,538.752,0.0
51854.0,STARLINK-3541,PAYLOAD,2024-07-06 04:30:59,15.08832234,0.000133,53.2154,244.2619,93.3667,266.7477,-7.9593e-05,-1.554e-05,0.0,0 STARLINK-3541,1 51854U 22022C   24188.18819030 -.00001554  00000-0 -79593-4 0  9998,2 51854  53.2154 244.2619 0001330  93.3667 266.7477 15.08832234130700,6917.904,95.438,540.689,538.849,0.0
51854.0,STARLINK-3541,PAYLOAD,2024-07-06 14:03:18,15.08836354,0.0001332,53.215,242.4769,92.5322,267.5822,-2.6491e-05,-7.09e-06,0.0,0 STARLINK-3541,1 51854U 22022C   24188.58562869 -.00000709  00000-0 -26491-4 0  9997,2 51854  53.2150 242.4769 0001332  92.5322 267.5822 15.08836354130769,6917.892,95.438,540.678,538.835,0.0
51854.0,STARLINK-3541,PAYLOAD,2024-07-06 20:24:50,15.08840198,0.0001337,53.2151,241.2876,90.9455,269.1691,3.3279e-05,2.42e-06,0.0,0 STARLINK-3541,1 51854U 22022C   24188.85058709  .00000242  00000-0  33279-4 0  9992,2 51854  53.2151 241.2876 0001337  90.9455 269.1691 15.08840198130808,6917.88,95.438,540.67,538.82,0.0
51854.0,STARLINK-3541,PAYLOAD,2024-07-07 10:43:19,15.08839384,0.0001376,53.215,238.6115,91.5673,268.5476,6.5337e-05,7.52e-06,0.0,0 STARLINK-3541,1 51854U 22022C   24189.44674807  .00000752  00000-0  65337-4 0  9997,2 51854  53.2150 238.6115 0001376  91.5673 268.5476 15.08839384130893,6917.882,95.438,540.699,538.795,0.0
51854.0,STARLINK-3541,PAYLOAD,2024-07-08 10:34:06,15.08840147,0.0001366,53.2146,234.1505,89.638,270.4769,0.00017304,2.467e-05,0.0,0 STARLINK-3541,1 51854U 22022C   24190.44035072  .00002467  00000-0  17304-3 0  9999,2 51854  53.2146 234.1505 0001366  89.6380 270.4769 15.08840147131048,6917.88,95.438,540.69,538.8,0.0
51854.0,STARLINK-3541,PAYLOAD,2024-07-08 20:06:24,15.088476,0.0001393,53.2147,232.3662,83.1048,277.0103,0.00024918,3.681e-05,0.0,0 STARLINK-3541,1 51854U 22022C   24190.83778787  .00003681  00000-0  24918-3 0  9997,2 51854  53.2147 232.3662 0001393  83.1048 277.0103 15.08847600131106,6917.857,95.437,540.686,538.759,0.0
51854.0,STARLINK-3541,PAYLOAD,2024-07-09 12:00:16,15.08845949,0.0001387,53.2143,229.3912,89.7858,270.3293,0.00018106,2.595e-05,0.0,0 STARLINK-3541,1 51854U 22022C   24191.50018743  .00002595  00000-0  18106-3 0  9996,2 51854  53.2143 229.3912 0001387  89.7858 270.3293 15.08845949131201,6917.862,95.437,540.687,538.768,0.0
51854.0,STARLINK-3541,PAYLOAD,2024-07-10 02:18:44,15.08831245,0.0001305,53.2138,226.7117,96.52,263.594,0.00026491,3.93e-05,0.0,0 STARLINK-3541,1 51854U 22022C   24192.09635380  .00003930  00000-0  26491-3 0  9993,2 51854  53.2138 226.7117 0001305  96.5200 263.5940 15.08831245131296,6917.907,95.438,540.675,538.869,0.0
51854.0,STARLINK-3541,PAYLOAD,2024-07-10 11:51:03,15.0883611,0.0001384,53.2147,224.9289,101.254,258.8608,-8.1348e-06,-4.17e-06,0.0,0 STARLINK-3541,1 51854U 22022C   24192.49379254 -.00000417  00000-0 -81348-5 0  9995,2 51854  53.2147 224.9289 0001384 101.2540 258.8608 15.08836110131355,6917.892,95.438,540.715,538.8,0.0
51854.0,STARLINK-3541,PAYLOAD,2024-07-11 05:20:19,15.0882237,0.0001271,53.2142,221.661,87.1438,272.9699,-6.4504e-05,-1.314e-05,0.0,0 STARLINK-3541,1 51854U 22022C   24193.22245166 -.00001314  00000-0 -64504-4 0  9992,2 51854  53.2142 221.6610 0001271  87.1438 272.9699 15.08822370131467,6917.934,95.439,540.679,538.92,0.0
51854.0,STARLINK-3541,PAYLOAD,2024-07-11 08:31:06,15.08807189,0.0001558,53.2161,221.0664,103.2816,256.835,0.00019407,2.799e-05,0.0,0 STARLINK-3541,1 51854U 22022C   24193.35493242  .00002799  00000-0  19407-3 0  9993,2 51854  53.2161 221.0664 0001558 103.2816 256.8350 15.08807189131487,6917.981,95.44,540.924,538.768,0.0
51854.0,STARLINK-3541,PAYLOAD,2024-07-12 05:11:06,15.08829613,0.0001455,53.215,217.2017,95.1417,264.9741,0.00013289,1.827e-05,0.0,0 STARLINK-3541,1 51854U 22022C   24194.21604760  .00001827  00000-0  13289-3 0  9991,2 51854  53.2150 217.2017 0001455  95.1417 264.9741 15.08829613131611,6917.912,95.438,540.784,538.771,0.0
51854.0,STARLINK-3541,PAYLOAD,2024-07-12 11:32:38,15.08836526,0.0001395,53.2143,216.0116,91.718,268.3972,0.00018938,2.727e-05,0.0,0 STARLINK-3541,1 51854U 22022C   24194.48100478  .00002727  00000-0  18938-3 0  9993,2 51854  53.2143 216.0116 0001395  91.7180 268.3972 15.08836526131651,6917.891,95.438,540.721,538.791,0.0
51854.0,STARLINK-3541,PAYLOAD,2024-07-13 05:01:53,15.08843744,0.00014,53.2151,212.7383,87.5484,272.5669,0.00022427,3.283e-05,0.0,0 STARLINK-3541,1 51854U 22022C   24195.20964386  .00003283  00000-0  22427-3 0  9996,2 51854  53.2151 212.7383 0001400  87.5484 272.5669 15.08843744131768,6917.869,95.437,540.702,538.765,0.0
51854.0,STARLINK-3541,PAYLOAD,2024-07-13 08:12:39,15.08845748,0.0001403,53.2151,212.144,88.0238,272.0915,0.00024215,3.569e-05,0.0,0 STARLINK-3541,1 51854U 22022C   24195.34212299  .00003569  00000-0  24215-3 0  9994,2 51854  53.2151 212.1440 0001403  88.0238 272.0915 15.08845748131789,6917.863,95.437,540.698,538.757,0.0
51854.0,STARLINK-3541,PAYLOAD,2024-07-13 17:44:57,15.08854395,0.0001476,53.2148,210.3596,86.4999,273.6162,0.00028768,4.295e-05,0.0,0 STARLINK-3541,1 51854U 22022C   24195.73955998  .00004295  00000-0  28768-3 0  9991,2 51854  53.2148 210.3596 0001476  86.4999 273.6162 15.08854395131849,6917.836,95.437,540.722,538.68,0.0
51854.0,STARLINK-3541,PAYLOAD,2024-07-14 08:03:26,15.0884604,0.000157,53.2157,207.6842,89.9411,270.1761,1.5747e-05,-3.7e-07,0.0,0 STARLINK-3541,1 51854U 22022C   24196.33572086 -.00000037  00000-0  15747-4 0  9996,2 51854  53.2157 207.6842 0001570  89.9411 270.1761 15.08846040131939,6917.862,95.437,540.813,538.641,0.0
51854.0,STARLINK-3541,PAYLOAD,2024-07-14 17:35:44,15.08850113,0.0001563,53.2165,205.9002,91.5053,268.6119,7.9757e-05,9.82e-06,0.0,0 STARLINK-3541,1 51854U 22022C   24196.73315913  .00000982  00000-0  79757-4 0  9993,2 51854  53.2165 205.9002 0001563  91.5053 268.6119 15.08850113131991,6917.849,95.437,540.796,538.633,0.0
